(45-degree gantry acceptance fixture; datum and T1 from xyzabc6.)
G21 G90 G54
(Table-aware TWP gate fixture: the plane is defined at table A0, then the)
(WORK-side A table is moved 20 deg BEFORE the orient. The composition in)
(g53x_core must orient to where the face IS, not to the definition-frame)
(numbers - a wrong sign puts the plane normal off by 2*dA = 40 deg.)
g69
g10 l2 p0 x-100 y140 z-725 a0
m6 t1 g43 h1
g0 x0y0z100 a0
g68.2 x50 y50 z-50 q121 i30 j15
g0 a20
g53.3 x0y0z100
o<square> call
(NOTE: no trailing g69 + move. Motion after g69 has a separate,)
(pre-existing offline-chain defect - twp_g69_tail.ngc reproduces it.)
M2
