(45-degree gantry acceptance fixture; datum and T1 from xyzabc6.)
G21 G90 G54
(REGRESSION: motion AFTER g69 - the relabel carry.)
(A relabel re-expresses a POSITION, so every axis the following blocks do)
(not command keeps the pre-flip value in the un-resynced offline)
(interpreter. Correcting only the post-flip segment's START turned this)
(program's trailing zero-length hold into 897 mm of invented travel.)
(Fixed 2026-08-29; this program is the gate that keeps it fixed.)
(NO table move here on purpose, so the table-aware composition cannot be)
(implicated - the defect and its fix are purely offline-chain.)
g69
g10 l2 p0 x-100 y140 z-725 a0
m6 t1 g43 h1
g0 x0y0z100 a0
g68.2 x50 y50 z-50 q121 i30 j15
g53.3 x0y0z100
o<square> call
g69
g0 a0
M2
